HAWK-11B                
1 62379U 24247C   26068.44730104  .00009093  00000+0  32842-3 0  9993
2 62379  45.0161 115.7610 0004690 333.0326  27.0314 15.28847070 67738
STARLINK-36149          
1 66969U 25288L   26067.90670782  .00030524  00000+0  11146-2 0  9999
2 66969  42.9976  28.2236 0000922 288.8294  71.2457 15.27566533 15164
